{"spkid": "50841873", "covariance": {"data": [["1.393923014214065E-14", "-1.441141057350907E-14", "3.93788213029117E-13", "5.348543413285644E-12", "-6.549728444651937E-12", "2.30733407650612E-13"], ["-1.441141057350907E-14", "1.492168074942407E-14", "-4.021527993835286E-13", "-5.534148806152905E-12", "6.783351923591315E-12", "-2.388233972296308E-13"], ["3.93788213029117E-13", "-4.021527993835286E-13", "2.199777289011959E-11", "1.965605074911978E-10", "-2.201333110999783E-10", "1.129639591281658E-11"], ["5.348543413285644E-12", "-5.534148806152905E-12", "1.965605074911978E-10", "1.483275251294575E-8", "-1.523604678015298E-8", "7.300719429691895E-10"], ["-6.549728444651937E-12", "6.783351923591315E-12", "-2.201333110999783E-10", "-1.523604678015298E-8", "1.575364548439328E-8", "-7.446468197341742E-10"], ["2.30733407650612E-13", "-2.388233972296308E-13", "1.129639591281658E-11", "7.300719429691895E-10", "-7.446468197341742E-10", "3.700071929220917E-11"]], "elements": [{"label": "e", "title": "eccentricity", "value": ".1922316724764649", "units": null, "sigma": 1.18064516863199e-07, "name": "e"}, {"label": "q", "sigma": 1.22154331685062e-07, "name": "q", "value": ".8649999510620616", "title": "perihelion distance", "units": "au"}, {"sigma": 4.69017834310377e-06, "name": "tp", "units": "TDB", "title": "time of perihelion passage", "value": "2458537.867591581096", "label": "tp"}, {"units": "deg", "title": "longitude of the ascending node", "value": "191.3076217126446", "sigma": 0.000121789788212911, "name": "om", "label": "node"}, {"label": "peri", "name": "w", "sigma": 0.000125513527097255, "units": "deg", "value": "308.0473564765829", "title": "argument of perihelion"}, {"label": "i", "name": "i", "sigma": 6.08282165546625e-06, "title": "inclination", "value": "2.632598731342516", "units": "deg"}], "labels": ["e", "q", "tp", "node", "peri", "i"], "epoch": "2458552.5"}, "elements": [{"sigma": "1.1787E-7", "name": "e", "title": "eccentricity", "value": ".1928241884608132", "units": null, "label": "e"}, {"name": "a", "sigma": "7.8436E-9", "units": "au", "title": "semi-major axis", "value": "1.072394317749592", "label": "a"}, {"label": "q", "sigma": "1.2278E-7", "name": "q", "title": "perihelion distance", "value": ".8656107537195399", "units": "au"}, {"name": "i", "sigma": "5.9582E-6", "units": "deg", "value": "2.573477008830958", "title": "inclination; angle with respect to x-y ecliptic plane", "label": "i"}, {"units": "deg", "value": "190.4086242921512", "title": "longitude of the ascending node", "sigma": ".00012572", "name": "om", "label": "node"}, {"sigma": ".00012932", "name": "w", "title": "argument of perihelion", "value": "309.2244742646875", "units": "deg", "label": "peri"}, {"name": "ma", "sigma": "2.8598E-5", "title": "mean anomaly", "value": "203.1839438228426", "units": "deg", "label": "M"}, {"name": "tp", "sigma": "3.415E-5", "value": "2461377.192538316965", "title": "time of perihelion passage", "units": "TDB", "label": "tp"}, {"name": "per", "sigma": "4.4502E-6", "units": "d", "title": "sidereal orbital period", "value": "405.6301079415432", "label": "period"}, {"label": "n", "units": "deg/d", "title": "mean motion", "value": ".887508084217163", "name": "n", "sigma": "9.7369E-9"}, {"label": "Q", "units": "au", "title": "aphelion distance", "value": "1.279177881779645", "sigma": "9.356E-9", "name": "ad"}], "epoch": "2461200.5"}